STARLINK-31470          
1 59569U 24076F   26068.24231459 -.00003688  00000+0 -12462-3 0  9999
2 59569  43.0015   8.1268 0001517 254.4295 105.6390 15.27568468106383
OTTER                   
1 62623U 25009Q   26068.72300813  .00012198  00000+0  45151-3 0  9990
2 62623  97.4065 151.3812 0003573 310.7710  49.3219 15.27809545 63722
